SL-8 R/B                
1 19257U 88053B   26110.25132421  .00000113  00000+0  45257-4 0  9999
2 19257  74.0492  35.8521 0020821 208.7937 312.6366 14.38939390982572
COSMOS 1975             
1 19573U 88093A   26110.29951788  .00004032  00000+0  14353-3 0  9999
2 19573  82.5185  75.8865 0012388  33.5141 326.6879 15.28584432 25767
SL-14 R/B               
1 19574U 88093B   26110.22853516  .00000258  00000+0  26874-4 0  9991
2 19574  82.5339   3.0604 0019099 260.1565 218.6703 14.85699763  7185
SL-16 R/B               
1 19650U 88102B   26110.15560211 -.00000251  00000+0 -10231-3 0  9990
2 19650  70.9995  64.2442 0016208 302.3635  57.5919 14.16158709932768
INTERCOSMOS 24          
1 20261U 89080A   26110.18836851  .00000153  00000+0  40662-4 0  9996
2 20261  82.6032  77.3753 1187393 196.4417 159.4822 12.59598842672021
SL-14 R/B               
1 20262U 89080C   26110.08331196  .00000237  00000+0  61276-4 0  9995
2 20262  82.5919 146.6233 1230977  90.1850 283.9987 12.50526209665325
DELTA 1 R/B             
1 20323U 89089B   26110.28153637  .00000149  00000+0  45595-4 0  9994
2 20323  97.0669 311.0942 0068815 352.4143   7.6008 14.50694155901763
ARIANE 40 R/B           
1 20443U 90005H   26110.09084359  .00000143  00000+0  58747-4 0  9997
2 20443  98.3007 169.5014 0011366  82.4767 277.7712 14.39896123898766
DELTA 2 R/B(1)          
1 20453U 90008B   26110.13317996  .00055765  00000+0  54530-3 0  9997
2 20453  35.6027 261.7215 0075739 288.0346  71.2150 15.61339721932609
COSMOS 2058             
1 20465U 90010A   26110.15594306  .00001763  00000+0  10183-3 0  9992
2 20465  82.4708   6.5743 0009223 181.7959 178.3240 15.11670739948500
SL-14 R/B               
1 20466U 90010B   26110.30095756  .00000303  00000+0  33760-4 0  9991
2 20466  82.5034 228.2983 0020374 158.8239 201.3824 14.83607759934655
SL-14 R/B               
1 20511U 90018B   26110.15611535  .00000264  00000+0  30114-4 0  9998
2 20511  82.5238 184.3447 0015136 319.4601  40.5485 14.82181640928729
HST                     
1 20580U 90037B   26110.30222324  .00004272  00000+0  13496-3 0  9992
2 20580  28.4730 115.9889 0001886 214.8059 145.2413 15.30087398779696
SL-16 R/B               
1 20625U 90046B   26110.26390749 -.00000153  00000+0 -54151-4 0  9994
2 20625  70.9993 210.5965 0016298 244.9398 115.0033 14.15015201854276
COSMOS 2084             
1 20663U 90055A   26110.22762312  .00001334  00000+0  10516-3 0  9997
2 20663  62.7892 193.8773 0010512 206.6549 153.4012 15.05881222942579
SL-6 R/B(2)             
1 20666U 90055D   26110.26770754  .00001217  00000+0  10203-3 0  9996
2 20666  62.7803 112.4355 0031540 355.8596   4.2237 15.03773001944443
SL-8 R/B                
1 20775U 90078B   26110.28820036  .00012193  00000+0  35867-3 0  9991
2 20775  82.9058 213.8651 0356489 233.4616 123.3298 14.90179869815490
