[{"OBJECT_NAME":"SL-8 R/B","OBJECT_ID":"1988-053B","EPOCH":"2026-04-20T06:01:54.411744","MEAN_MOTION":14.3893939,"ECCENTRICITY":0.00208214,"INCLINATION":74.0492,"RA_OF_ASC_NODE":35.8521,"ARG_OF_PERICENTER":208.7937,"MEAN_ANOMALY":312.6366,"EPHEMERIS_TYPE":0,"CLASSIFICATION_TYPE":"U","NORAD_CAT_ID":19257,"ELEMENT_SET_NO":999,"REV_AT_EPOCH":98257,"BSTAR":4.5256731e-5,"MEAN_MOTION_DOT":1.13e-6,"MEAN_MOTION_DDOT":0},{"OBJECT_NAME":"COSMOS 1975","OBJECT_ID":"1988-093A","EPOCH":"2026-04-20T07:11:18.344832","MEAN_MOTION":15.28584432,"ECCENTRICITY":0.00123887,"INCLINATION":82.5185,"RA_OF_ASC_NODE":75.8865,"ARG_OF_PERICENTER":33.5141,"MEAN_ANOMALY":326.6879,"EPHEMERIS_TYPE":0,"CLASSIFICATION_TYPE":"U","NORAD_CAT_ID":19573,"ELEMENT_SET_NO":999,"REV_AT_EPOCH":2576,"BSTAR":0.00014352853,"MEAN_MOTION_DOT":4.032e-5,"MEAN_MOTION_DDOT":0},{"OBJECT_NAME":"SL-14 R/B","OBJECT_ID":"1988-093B","EPOCH":"2026-04-20T05:29:05.437824","MEAN_MOTION":14.85699763,"ECCENTRICITY":0.0019099,"INCLINATION":82.5339,"RA_OF_ASC_NODE":3.0604,"ARG_OF_PERICENTER":260.1565,"MEAN_ANOMALY":218.6703,"EPHEMERIS_TYPE":0,"CLASSIFICATION_TYPE":"U","NORAD_CAT_ID":19574,"ELEMENT_SET_NO":999,"REV_AT_EPOCH":718,"BSTAR":2.6874175e-5,"MEAN_MOTION_DOT":2.58e-6,"MEAN_MOTION_DDOT":0},{"OBJECT_NAME":"SL-16 R/B","OBJECT_ID":"1988-102B","EPOCH":"2026-04-20T03:44:04.022304","MEAN_MOTION":14.16158709,"ECCENTRICITY":0.00162082,"INCLINATION":70.9995,"RA_OF_ASC_NODE":64.2442,"ARG_OF_PERICENTER":302.3635,"MEAN_ANOMALY":57.5919,"EPHEMERIS_TYPE":0,"CLASSIFICATION_TYPE":"U","NORAD_CAT_ID":19650,"ELEMENT_SET_NO":999,"REV_AT_EPOCH":93276,"BSTAR":-0.00010230637,"MEAN_MOTION_DOT":-2.51e-6,"MEAN_MOTION_DDOT":0},{"OBJECT_NAME":"INTERCOSMOS 24","OBJECT_ID":"1989-080A","EPOCH":"2026-04-20T04:31:15.039264","MEAN_MOTION":12.59598842,"ECCENTRICITY":0.11873935,"INCLINATION":82.6032,"RA_OF_ASC_NODE":77.3753,"ARG_OF_PERICENTER":196.4417,"MEAN_ANOMALY":159.4822,"EPHEMERIS_TYPE":0,"CLASSIFICATION_TYPE":"U","NORAD_CAT_ID":20261,"ELEMENT_SET_NO":999,"REV_AT_EPOCH":67202,"BSTAR":4.0661558e-5,"MEAN_MOTION_DOT":1.53e-6,"MEAN_MOTION_DDOT":0},{"OBJECT_NAME":"SL-14 R/B","OBJECT_ID":"1989-080C","EPOCH":"2026-04-20T01:59:58.153344","MEAN_MOTION":12.50526209,"ECCENTRICITY":0.12309777,"INCLINATION":82.5919,"RA_OF_ASC_NODE":146.6233,"ARG_OF_PERICENTER":90.185,"MEAN_ANOMALY":283.9987,"EPHEMERIS_TYPE":0,"CLASSIFICATION_TYPE":"U","NORAD_CAT_ID":20262,"ELEMENT_SET_NO":999,"REV_AT_EPOCH":66532,"BSTAR":6.127593e-5,"MEAN_MOTION_DOT":2.37e-6,"MEAN_MOTION_DDOT":0},{"OBJECT_NAME":"DELTA 1 R/B","OBJECT_ID":"1989-089B","EPOCH":"2026-04-20T06:45:24.742368","MEAN_MOTION":14.50694155,"ECCENTRICITY":0.00688153,"INCLINATION":97.0669,"RA_OF_ASC_NODE":311.0942,"ARG_OF_PERICENTER":352.4143,"MEAN_ANOMALY":7.6008,"EPHEMERIS_TYPE":0,"CLASSIFICATION_TYPE":"U","NORAD_CAT_ID":20323,"ELEMENT_SET_NO":999,"REV_AT_EPOCH":90176,"BSTAR":4.5595023e-5,"MEAN_MOTION_DOT":1.49e-6,"MEAN_MOTION_DDOT":0},{"OBJECT_NAME":"ARIANE 40 R/B","OBJECT_ID":"1990-005H","EPOCH":"2026-04-20T02:10:48.886176","MEAN_MOTION":14.39896123,"ECCENTRICITY":0.00113669,"INCLINATION":98.3007,"RA_OF_ASC_NODE":169.5014,"ARG_OF_PERICENTER":82.4767,"MEAN_ANOMALY":277.7712,"EPHEMERIS_TYPE":0,"CLASSIFICATION_TYPE":"U","NORAD_CAT_ID":20443,"ELEMENT_SET_NO":999,"REV_AT_EPOCH":89876,"BSTAR":5.8747304e-5,"MEAN_MOTION_DOT":1.43e-6,"MEAN_MOTION_DDOT":0},{"OBJECT_NAME":"DELTA 2 R/B(1)","OBJECT_ID":"1990-008B","EPOCH":"2026-04-20T03:11:46.748544","MEAN_MOTION":15.61339721,"ECCENTRICITY":0.00757395,"INCLINATION":35.6027,"RA_OF_ASC_NODE":261.7215,"ARG_OF_PERICENTER":288.0346,"MEAN_ANOMALY":71.215,"EPHEMERIS_TYPE":0,"CLASSIFICATION_TYPE":"U","NORAD_CAT_ID":20453,"ELEMENT_SET_NO":999,"REV_AT_EPOCH":93260,"BSTAR":0.0005453023,"MEAN_MOTION_DOT":0.00055765,"MEAN_MOTION_DDOT":0},{"OBJECT_NAME":"COSMOS 2058","OBJECT_ID":"1990-010A","EPOCH":"2026-04-20T03:44:33.480384","MEAN_MOTION":15.11670739,"ECCENTRICITY":0.00092237,"INCLINATION":82.4708,"RA_OF_ASC_NODE":6.5743,"ARG_OF_PERICENTER":181.7959,"MEAN_ANOMALY":178.324,"EPHEMERIS_TYPE":0,"CLASSIFICATION_TYPE":"U","NORAD_CAT_ID":20465,"ELEMENT_SET_NO":999,"REV_AT_EPOCH":94850,"BSTAR":0.00010183353,"MEAN_MOTION_DOT":1.763e-5,"MEAN_MOTION_DDOT":0},{"OBJECT_NAME":"SL-14 R/B","OBJECT_ID":"1990-010B","EPOCH":"2026-04-20T07:13:22.733184","MEAN_MOTION":14.83607759,"ECCENTRICITY":0.00203744,"INCLINATION":82.5034,"RA_OF_ASC_NODE":228.2983,"ARG_OF_PERICENTER":158.8239,"MEAN_ANOMALY":201.3824,"EPHEMERIS_TYPE":0,"CLASSIFICATION_TYPE":"U","NORAD_CAT_ID":20466,"ELEMENT_SET_NO":999,"REV_AT_EPOCH":93465,"BSTAR":3.3759988e-5,"MEAN_MOTION_DOT":3.03e-6,"MEAN_MOTION_DDOT":0},{"OBJECT_NAME":"SL-14 R/B","OBJECT_ID":"1990-018B","EPOCH":"2026-04-20T03:44:48.366240","MEAN_MOTION":14.8218164,"ECCENTRICITY":0.00151368,"INCLINATION":82.5238,"RA_OF_ASC_NODE":184.3447,"ARG_OF_PERICENTER":319.4601,"MEAN_ANOMALY":40.5485,"EPHEMERIS_TYPE":0,"CLASSIFICATION_TYPE":"U","NORAD_CAT_ID":20511,"ELEMENT_SET_NO":999,"REV_AT_EPOCH":92872,"BSTAR":3.0113756e-5,"MEAN_MOTION_DOT":2.64e-6,"MEAN_MOTION_DDOT":0},{"OBJECT_NAME":"HST","OBJECT_ID":"1990-037B","EPOCH":"2026-04-20T07:15:12.087936","MEAN_MOTION":15.30087398,"ECCENTRICITY":0.0001886,"INCLINATION":28.473,"RA_OF_ASC_NODE":115.9889,"ARG_OF_PERICENTER":214.8059,"MEAN_ANOMALY":145.2413,"EPHEMERIS_TYPE":0,"CLASSIFICATION_TYPE":"U","NORAD_CAT_ID":20580,"ELEMENT_SET_NO":999,"REV_AT_EPOCH":77969,"BSTAR":0.00013496341,"MEAN_MOTION_DOT":4.272e-5,"MEAN_MOTION_DDOT":0},{"OBJECT_NAME":"SL-16 R/B","OBJECT_ID":"1990-046B","EPOCH":"2026-04-20T06:20:01.607136","MEAN_MOTION":14.15015201,"ECCENTRICITY":0.00162985,"INCLINATION":70.9993,"RA_OF_ASC_NODE":210.5965,"ARG_OF_PERICENTER":244.9398,"MEAN_ANOMALY":115.0033,"EPHEMERIS_TYPE":0,"CLASSIFICATION_TYPE":"U","NORAD_CAT_ID":20625,"ELEMENT_SET_NO":999,"REV_AT_EPOCH":85427,"BSTAR":-5.4150773e-5,"MEAN_MOTION_DOT":-1.53e-6,"MEAN_MOTION_DDOT":0},{"OBJECT_NAME":"COSMOS 2084","OBJECT_ID":"1990-055A","EPOCH":"2026-04-20T05:27:46.637568","MEAN_MOTION":15.05881222,"ECCENTRICITY":0.00105121,"INCLINATION":62.7892,"RA_OF_ASC_NODE":193.8773,"ARG_OF_PERICENTER":206.6549,"MEAN_ANOMALY":153.4012,"EPHEMERIS_TYPE":0,"CLASSIFICATION_TYPE":"U","NORAD_CAT_ID":20663,"ELEMENT_SET_NO":999,"REV_AT_EPOCH":94257,"BSTAR":0.00010515735,"MEAN_MOTION_DOT":1.334e-5,"MEAN_MOTION_DDOT":0},{"OBJECT_NAME":"SL-6 R/B(2)","OBJECT_ID":"1990-055D","EPOCH":"2026-04-20T06:25:29.931456","MEAN_MOTION":15.03773001,"ECCENTRICITY":0.00315403,"INCLINATION":62.7803,"RA_OF_ASC_NODE":112.4355,"ARG_OF_PERICENTER":355.8596,"MEAN_ANOMALY":4.2237,"EPHEMERIS_TYPE":0,"CLASSIFICATION_TYPE":"U","NORAD_CAT_ID":20666,"ELEMENT_SET_NO":999,"REV_AT_EPOCH":94444,"BSTAR":0.00010203018,"MEAN_MOTION_DOT":1.217e-5,"MEAN_MOTION_DDOT":0},{"OBJECT_NAME":"SL-8 R/B","OBJECT_ID":"1990-078B","EPOCH":"2026-04-20T06:55:00.511104","MEAN_MOTION":14.90179869,"ECCENTRICITY":0.0356489,"INCLINATION":82.9058,"RA_OF_ASC_NODE":213.8651,"ARG_OF_PERICENTER":233.4616,"MEAN_ANOMALY":123.3298,"EPHEMERIS_TYPE":0,"CLASSIFICATION_TYPE":"U","NORAD_CAT_ID":20775,"ELEMENT_SET_NO":999,"REV_AT_EPOCH":81549,"BSTAR":0.00035866919,"MEAN_MOTION_DOT":0.00012193,"MEAN_MOTION_DDOT":0}]
